
# G02 (GNSS)
1 28474U 04045A   25333.62257436 -.00000049  00000+0  00000+0 0  9991
2 28474  55.2472 332.9338 0170463 308.6843 232.0952  2.00568783154424

# G13 (GNSS)
1 24876U 97035A   25333.27101647  .00000061  00000+0  00000+0 0  9990
2 24876  55.8886 106.3958 0096619  57.0273 303.8851  2.00563476207949

# G16 (GNSS)
1 27663U 03005A   25333.31108034  .00000031  00000+0  00000+0 0  9990
2 27663  54.9269 222.9125 0146894  51.6101  45.2509  2.00571566167304

# G17 (GNSS)
1 28874U 05038A   25333.81231713 -.00000038  00000+0  00000+0 0  9997
2 28874  55.0438 281.2216 0132902 293.3347 343.3501  2.00549039147830

# G19 (GNSS)
1 28190U 04009A   25330.21851316 -.00000024  00000+0  00000+0 0  9998
2 28190  55.0011 283.8850 0108092 167.3745  15.7730  2.00561394158873

# G20 (GNSS)
1 26360U 00025A   25333.15384997 -.00000067  00000+0  00000+0 0  9998
2 26360  55.0372  27.3877 0038733 240.6500 127.3882  2.00568742187265

# G22 (GNSS)
1 26407U 00040A   25333.62658814  .00000033  00000+0  00000+0 0  9993
2 26407  54.8940 223.0906 0126736 301.5621 247.3963  2.00567688185949

# G31 (GNSS)
1 29486U 06042A   25332.28458940  .00000117  00000+0  00000+0 0  9993
2 29486  54.6911 159.3145 0107363  51.6109 105.7584  2.00554619140363
